{"fetched_at":"2026-03-30T06:02:59Z","count":15439,"tles":[{"name":"STARLINK-30483","line1":"1 57914U 23147B   26087.68127009  .00000871  00000+0  41195-4 0  9998","line2":"2 57914  43.0047  72.3736 0001282 272.5166  87.5539 15.27576930141217","category":"Starlink"}]}